[{"OBJECT_NAME":"STARLINK-35495","OBJECT_ID":"2025-245K","EPOCH":"2026-03-09T21:44:14.081856","MEAN_MOTION":15.30212846,"ECCENTRICITY":0.00014919,"INCLINATION":53.159,"RA_OF_ASC_NODE":282.601,"ARG_OF_PERICENTER":148.5669,"MEAN_ANOMALY":211.5421,"EPHEMERIS_TYPE":0,"CLASSIFICATION_TYPE":"U","NORAD_CAT_ID":66243,"ELEMENT_SET_NO":999,"REV_AT_EPOCH":2128,"BSTAR":0.0008735982,"MEAN_MOTION_DOT":0.00025614,"MEAN_MOTION_DDOT":0},{"OBJECT_NAME":"NOAA 17 DEB","OBJECT_ID":"2002-032AF","EPOCH":"2026-03-09T00:24:06.552000","MEAN_MOTION":15.25501717,"ECCENTRICITY":0.00030847,"INCLINATION":98.6472,"RA_OF_ASC_NODE":92.5947,"ARG_OF_PERICENTER":165.9893,"MEAN_ANOMALY":194.1428,"EPHEMERIS_TYPE":0,"CLASSIFICATION_TYPE":"U","NORAD_CAT_ID":48614,"ELEMENT_SET_NO":999,"REV_AT_EPOCH":26420,"BSTAR":0.01090047,"MEAN_MOTION_DOT":0.00286783,"MEAN_MOTION_DDOT":0}]
